[{"OBJECT_NAME":"STARLINK-4795","OBJECT_ID":"2022-114AQ","EPOCH":"2026-03-09T21:46:42.885984","MEAN_MOTION":15.08834203,"ECCENTRICITY":0.00010775,"INCLINATION":53.2162,"RA_OF_ASC_NODE":283.2258,"ARG_OF_PERICENTER":80.8504,"MEAN_ANOMALY":279.261,"EPHEMERIS_TYPE":0,"CLASSIFICATION_TYPE":"U","NORAD_CAT_ID":53856,"ELEMENT_SET_NO":999,"REV_AT_EPOCH":19314,"BSTAR":0.00034166264,"MEAN_MOTION_DOT":5.153e-5,"MEAN_MOTION_DDOT":0},{"OBJECT_NAME":"LEMUR-2-LANGER2SPACE","OBJECT_ID":"2025-061H","EPOCH":"2026-03-09T22:29:21.653952","MEAN_MOTION":15.13463796,"ECCENTRICITY":0.00153346,"INCLINATION":97.5541,"RA_OF_ASC_NODE":45.3892,"ARG_OF_PERICENTER":237.418,"MEAN_ANOMALY":122.5571,"EPHEMERIS_TYPE":0,"CLASSIFICATION_TYPE":"U","NORAD_CAT_ID":63358,"ELEMENT_SET_NO":999,"REV_AT_EPOCH":5260,"BSTAR":0.00035148431,"MEAN_MOTION_DOT":6.238e-5,"MEAN_MOTION_DDOT":0}]
